      2.10          N: GNSS NAV DATA                        RINEX VERSION / TYPE
fic2rin                                 04/14/2019 00:19:30 PGM / RUN BY / DATE
                                                            END OF HEADER
21 19  4 13 14  0  0.0-2.132188528776e-04 7.617018127348e-12 0.000000000000e+00
    4.100000000000e+01-7.453125000000e+01 5.024852162405e-09 9.497399578300e-01
   -4.328787326813e-06 2.472479699645e-02 4.583969712257e-06 5.153758609772e+03
    5.688000000000e+05-2.048909664154e-07-2.168402850408e+00-4.172325134277e-07
    9.478099153788e-01 2.917500000000e+02-1.452843347203e+00-8.812867091288e-09
   -9.214669542259e-11 1.000000000000e+00 2.048000000000e+03 0.000000000000e+00
    2.400000000000e+00 0.000000000000e+00-1.024454832077e-08 4.100000000000e+01
    5.616000000000e+05 4.000000000000e+00
11 19  4 13 14  0  0.0-6.272536702454e-04 7.275957614183e-12 0.000000000000e+00
    3.900000000000e+01-2.768750000000e+01 5.565588971978e-09 2.055431633526e+00
   -1.495704054832e-06 1.653730194084e-02 2.449378371239e-06 5.153699728012e+03
    5.688000000000e+05 2.905726432800e-07-2.553261737188e+00 3.539025783539e-08
    9.091377856723e-01 3.004687500000e+02 1.876148989456e+00-8.582857510466e-09
   -2.107230631757e-11 1.000000000000e+00 2.048000000000e+03 0.000000000000e+00
    2.400000000000e+00 0.000000000000e+00-1.210719347000e-08 3.900000000000e+01
    5.616000000000e+05 4.000000000000e+00
 9 19  4 13 14  0  0.0 4.294891841710e-04-6.480149750132e-12 0.000000000000e+00
    4.300000000000e+01 2.171875000000e+01 5.049496046064e-09-1.034407403746e+00
    1.136213541031e-06 1.309465384111e-03 8.240342140198e-06 5.153694377899e+03
    5.688000000000e+05-4.097819328308e-08-3.031265446087e-02 1.117587089539e-08
    9.528930627009e-01 2.222812500000e+02 1.750600397293e+00-8.196412842066e-09
    2.746542975968e-10 1.000000000000e+00 2.048000000000e+03 0.000000000000e+00
    2.400000000000e+00 0.000000000000e+00 1.396983861923e-09 4.300000000000e+01
    5.616000000000e+05 4.000000000000e+00
 8 19  4 13 14  0  0.0-1.397561281919e-04-1.364242052659e-12 0.000000000000e+00
    9.100000000000e+01 3.721875000000e+01 4.199460638678e-09-1.114297599973e+00
    1.966953277588e-06 4.403958912008e-03 5.034729838371e-06 5.153725791931e+03
    5.688000000000e+05-5.774199962616e-08 3.111669313814e+00-5.215406417847e-08
    9.705018740757e-01 2.890937500000e+02-2.717540908487e-01-8.117838140543e-09
    1.157191058795e-10 1.000000000000e+00 2.048000000000e+03 0.000000000000e+00
    2.400000000000e+00 0.000000000000e+00 5.122274160385e-09 9.100000000000e+01
    5.616000000000e+05 4.000000000000e+00
19 19  4 13 14  0  0.0-3.311354666948e-04 4.433786671143e-12 0.000000000000e+00
    3.600000000000e+01 2.815625000000e+01 4.129100565041e-09 1.399163108737e+00
    1.152977347374e-06 9.507575421594e-03 4.541128873825e-06 5.153632247925e+03
    5.688000000000e+05-9.499490261078e-08-3.058321780955e+00-2.272427082062e-07
    9.820922785083e-01 3.090000000000e+02 1.374191429206e+00-8.197127157534e-09
    3.750156209059e-11 1.000000000000e+00 2.048000000000e+03 0.000000000000e+00
    2.400000000000e+00 0.000000000000e+00-1.536682248116e-08 3.600000000000e+01
    5.616000000000e+05 4.000000000000e+00
17 19  4 13 14  0  0.0 3.843847662210e-05 5.798028723802e-12 0.000000000000e+00
    3.600000000000e+01 3.803125000000e+01 4.058740491404e-09-1.415776102997e+00
    2.155080437660e-06 1.286741229706e-02 4.233792424202e-06 5.153727983475e+03
    5.688000000000e+05 9.499490261078e-08-3.104634193436e+00 2.682209014893e-07
    9.842940931027e-01 3.134375000000e+02-1.713346748066e+00-8.136053184987e-09
    7.107438910502e-11 1.000000000000e+00 2.048000000000e+03 0.000000000000e+00
    2.400000000000e+00 0.000000000000e+00-1.117587089539e-08 3.600000000000e+01
    5.616000000000e+05 4.000000000000e+00
20 19  4 13 14  0  0.0 5.239392630756e-04 3.410605131648e-13 0.000000000000e+00
    3.500000000000e+01-7.481250000000e+01 5.101283917523e-09 2.410520843983e+00
   -3.917142748833e-06 4.354197299108e-03 9.132549166679e-06 5.153683952332e+03
    5.688000000000e+05 5.029141902924e-08-1.182867858989e+00 5.587935447693e-08
    9.301401807806e-01 1.862812500000e+02 2.332174538351e+00-8.203198839016e-09
    1.475061442230e-10 1.000000000000e+00 2.048000000000e+03 0.000000000000e+00
    2.400000000000e+00 0.000000000000e+00-8.847564458847e-09 3.500000000000e+01
    5.616000000000e+05 4.000000000000e+00
25 19  4 13 14  0  0.0-7.451036944985e-04-4.433786671143e-12 0.000000000000e+00
    8.500000000000e+01 5.471875000000e+01 4.163744865258e-09 1.065734457306e+00
    2.972781658173e-06 8.426411077380e-03 1.014769077301e-05 5.153736236572e+03
    5.688000000000e+05-1.136213541031e-07 2.081539697581e+00 7.636845111847e-08
    9.705588664382e-01 1.888750000000e+02 8.843004371313e-01-8.012119451221e-09
   -3.610864692722e-10 1.000000000000e+00 2.048000000000e+03 0.000000000000e+00
    2.400000000000e+00 0.000000000000e+00 6.053596735001e-09 8.500000000000e+01
    5.616000000000e+05 4.000000000000e+00
13 19  4 13 14  0  0.0-6.795627996325e-05 1.477928890381e-12 0.000000000000e+00
    8.700000000000e+01 2.625000000000e+01 4.670551690082e-09-2.403791195529e+00
    1.281499862671e-06 3.595485235564e-03 7.858499884605e-06 5.153656385422e+03
    5.688000000000e+05 6.332993507385e-08 1.061802619198e-01 5.587935447693e-09
    9.683914406591e-01 2.306562500000e+02 1.329423951844e+00-7.926758752748e-09
    2.725113511916e-10 1.000000000000e+00 2.048000000000e+03 0.000000000000e+00
    2.400000000000e+00 0.000000000000e+00-1.117587089539e-08 8.700000000000e+01
    5.616000000000e+05 4.000000000000e+00
23 19  4 13 14  0  0.0-1.903600059450e-04 1.477928890381e-12 0.000000000000e+00
    4.900000000000e+01 2.428125000000e+01 5.167358098349e-09-2.756065274690e+00
    9.480863809586e-07 1.307292480487e-02 8.113682270050e-06 5.153602552414e+03
    5.688000000000e+05 1.639127731323e-07-3.500016875466e-02-2.216547727585e-07
    9.437034516653e-01 2.149062500000e+02-2.274834750330e+00-8.131052976708e-09
    3.389426897521e-10 1.000000000000e+00 2.048000000000e+03 0.000000000000e+00
    2.400000000000e+00 0.000000000000e+00-2.048909664154e-08 4.900000000000e+01
    5.616000000000e+05 4.000000000000e+00
15 19  4 13 14  0  0.0-3.185924142599e-04 1.932676241267e-12 0.000000000000e+00
    1.050000000000e+02 1.971875000000e+01 5.486299954986e-09-2.225014302720e+00
    7.208436727524e-07 1.126373512670e-02 8.238479495049e-06 5.153662921906e+03
    5.688000000000e+05 1.750886440277e-07-1.091774723885e-01-1.117587089539e-07
    9.283791594956e-01 1.997812500000e+02 7.694424611555e-01-8.285345117881e-09
    4.671623163285e-10 1.000000000000e+00 2.048000000000e+03 0.000000000000e+00
    2.400000000000e+00 0.000000000000e+00-1.071020960808e-08 1.050000000000e+02
    5.616000000000e+05 4.000000000000e+00
10 19  4 13 14  0  0.0 7.386179640889e-05-9.663381206337e-12 0.000000000000e+00
    9.800000000000e+01-6.606250000000e+01 4.403397704904e-09 6.844246127123e-01
   -3.408640623093e-06 4.468572209589e-03 9.711831808090e-06 5.153663833618e+03
    5.688000000000e+05-1.862645149231e-09-1.065832772716e+00 1.061707735062e-07
    9.625015642364e-01 1.953125000000e+02-2.703716857825e+00-7.905329288696e-09
    1.885792836555e-10 1.000000000000e+00 2.048000000000e+03 0.000000000000e+00
    2.400000000000e+00 0.000000000000e+00 1.862645149231e-09 9.800000000000e+01
    5.616000000000e+05 4.000000000000e+00
31 19  4 13 14  0  0.0 4.534842446446e-05-2.614797267597e-12 0.000000000000e+00
    8.700000000000e+01 8.875000000000e+00 4.893775273955e-09 1.767006883112e+00
    7.655471563339e-07 9.203514317051e-03 7.292255759239e-06 5.153588468552e+03
    5.688000000000e+05 2.048909664154e-08 1.059562404467e+00 1.434236764908e-07
    9.603629725726e-01 2.396562500000e+02 3.120067791919e-04-8.182126532698e-09
   -4.610906348471e-10 1.000000000000e+00 2.048000000000e+03 0.000000000000e+00
    2.400000000000e+00 0.000000000000e+00-1.350417733192e-08 8.700000000000e+01
    5.616000000000e+05 4.000000000000e+00
18 19  4 13 14  0  0.0 4.382245242596e-05 3.524291969370e-12 0.000000000000e+00
    1.090000000000e+02-6.921875000000e+01 4.506259132352e-09 2.515291784753e+00
   -3.647059202194e-06 1.517590426374e-02 4.433095455170e-06 5.153717700958e+03
    5.688000000000e+05 1.564621925354e-07-2.159496511515e+00-9.499490261078e-08
    9.534890248051e-01 2.874062500000e+02 1.381578295070e+00-8.024977129652e-09
   -3.571577341961e-12 1.000000000000e+00 2.048000000000e+03 0.000000000000e+00
    3.400000000000e+00 0.000000000000e+00-6.053596735001e-09 1.090000000000e+02
    5.616000000000e+05 4.000000000000e+00
29 19  4 13 14  0  0.0 2.264380455017e-04-9.094947017729e-12 0.000000000000e+00
    8.300000000000e+01 5.012500000000e+01 4.010167039554e-09-6.664975669161e-01
    2.538785338402e-06 9.186761453748e-04 4.652887582779e-06 5.153771486282e+03
    5.688000000000e+05-4.284083843231e-08-3.093571049549e+00 2.235174179077e-08
    9.857372061970e-01 3.023437500000e+02 1.597357092312e+00-8.065335953616e-09
    1.492919328940e-10 1.000000000000e+00 2.048000000000e+03 0.000000000000e+00
    2.400000000000e+00 0.000000000000e+00-1.024454832077e-08 8.300000000000e+01
    5.616000000000e+05 4.000000000000e+00
26 19  4 13 14  0  0.0 1.749265938997e-04 9.890754881781e-12 0.000000000000e+00
    6.100000000000e+01 3.946875000000e+01 4.685909472653e-09 4.231725869282e-01
    2.112239599228e-06 3.726744675077e-03 8.754432201385e-06 5.153586982727e+03
    5.688000000000e+05 5.587935447693e-08 2.053764954365e+00 3.352761268616e-08
    9.518723394065e-01 2.015000000000e+02 1.620409095629e-01-8.173197589343e-09
   -3.196561721055e-10 1.000000000000e+00 2.048000000000e+03 0.000000000000e+00
    2.400000000000e+00 0.000000000000e+00 7.450580596924e-09 6.100000000000e+01
    5.616000000000e+05 4.000000000000e+00
